$$SOE
2460147.500000000, A.D. 2023-Jul-22 00:00:00.0000, -4.976737876862130E+08, 9.455868393368030E+07, -7.143471933341332E+07,
2460154.500000000, A.D. 2023-Jul-29 00:00:00.0000, -4.989972466276582E+08, 8.529350570193461E+07, -7.152947477038229E+07,
2460161.500000000, A.D. 2023-Aug-05 00:00:00.0000, -5.001394973784080E+08, 7.599732812241164E+07, -7.159824378295983E+07,
2460168.500000000, A.D. 2023-Aug-12 00:00:00.0000, -5.010997638584291E+08, 6.667347125326325E+07, -7.164094918989708E+07,
2460175.500000000, A.D. 2023-Aug-19 00:00:00.0000, -5.018773180469748E+08, 5.732527609961361E+07, -7.165752090837225E+07,
2460182.500000000, A.D. 2023-Aug-26 00:00:00.0000, -5.024714805476693E+08, 4.795610445542496E+07, -7.164789602571717E+07,
2460189.500000000, A.D. 2023-Sep-02 00:00:00.0000, -5.028816211966213E+08, 3.856933866248626E+07, -7.161201887852825E+07,
2460196.500000000, A.D. 2023-Sep-09 00:00:00.0000, -5.031071596768764E+08, 2.916838124423818E+07, -7.154984114580837E+07,
2460203.500000000, A.D. 2023-Sep-16 00:00:00.0000, -5.031475659707209E+08, 1.975665435534613E+07, -7.146132197623387E+07,
2460210.500000000, A.D. 2023-Sep-23 00:00:00.0000, -5.030023602332314E+08, 1.033759933272108E+07, -7.134642816415974E+07,
2460217.500000000, A.D. 2023-Sep-30 00:00:00.0000, -5.026711124262324E+08, 9.146775374512933E+05, -7.120513424569102E+07,
2460224.500000000, A.D. 2023-Oct-07 00:00:00.0000, -5.021534440663847E+08, -8.508628056805700E+06, -7.103742234319477E+07,
2460231.500000000, A.D. 2023-Oct-14 00:00:00.0000, -5.014490310484904E+08, -1.792881384345059E+07, -7.084328212456806E+07,
2460238.500000000, A.D. 2023-Oct-21 00:00:00.0000, -5.005576043156316E+08, -2.734235752821225E+07, -7.062271104224920E+07,
2460245.500000000, A.D. 2023-Oct-28 00:00:00.0000, -4.994789497991018E+08, -3.674571878081241E+07, -7.037571453591995E+07,
2460252.500000000, A.D. 2023-Nov-04 00:00:00.0000, -4.982129088773324E+08, -4.613533936535268E+07, -7.010230614675353E+07,
2460259.500000000, A.D. 2023-Nov-11 00:00:00.0000, -4.967593791765058E+08, -5.550764335110606E+07, -6.980250760843538E+07,
2460266.500000000, A.D. 2023-Nov-18 00:00:00.0000, -4.951183154936617E+08, -6.485903746931788E+07, -6.947634894024073E+07,
2460273.500000000, A.D. 2023-Nov-25 00:00:00.0000, -4.932897307693912E+08, -7.418591159465823E+07, -6.912386854679117E+07,
2460280.500000000, A.D. 2023-Dec-02 00:00:00.0000, -4.912736970816845E+08, -8.348463936385500E+07, -6.874511332777944E+07,
2460287.500000000, A.D. 2023-Dec-09 00:00:00.0000, -4.890703465828710E+08, -9.275157899180868E+07, -6.834013880948913E+07,
2460294.500000000, A.D. 2023-Dec-16 00:00:00.0000, -4.866798720918738E+08, -1.019830742739115E+08, -6.790900932340530E+07,
2460301.500000000, A.D. 2023-Dec-23 00:00:00.0000, -4.841025269928320E+08, -1.111754550881831E+08, -6.745179820763558E+07,
2460308.500000000, A.D. 2023-Dec-30 00:00:00.0000, -4.813386257792802E+08, -1.203250363489566E+08, -6.696858782232639E+07,
2460315.500000000, A.D. 2024-Jan-06 00:00:00.0000, -4.783885470153139E+08, -1.294281177741925E+08, -6.645946940938353E+07,
2460322.500000000, A.D. 2024-Jan-13 00:00:00.0000, -4.752527355404550E+08, -1.384809862745809E+08, -6.592454323524912E+07,
2460329.500000000, A.D. 2024-Jan-20 00:00:00.0000, -4.719317026930279E+08, -1.474799178805973E+08, -6.536391887657249E+07,
2460336.500000000, A.D. 2024-Jan-27 00:00:00.0000, -4.684260265780149E+08, -1.564211785569896E+08, -6.477771540895054E+07,
2460343.500000000, A.D. 2024-Feb-03 00:00:00.0000, -4.647363528060871E+08, -1.653010248562907E+08, -6.416606153709731E+07,
2460350.500000000, A.D. 2024-Feb-10 00:00:00.0000, -4.608633954264628E+08, -1.741157047054185E+08, -6.352909571630325E+07,
2460357.500000000, A.D. 2024-Feb-17 00:00:00.0000, -4.568079379154589E+08, -1.828614583194237E+08, -6.286696627784754E+07,
2460364.500000000, A.D. 2024-Feb-24 00:00:00.0000, -4.525708341848287E+08, -1.915345192288304E+08, -6.217983156071473E+07,
2460371.500000000, A.D. 2024-Mar-02 00:00:00.0000, -4.481530095798092E+08, -2.001311154541063E+08, -6.146786005492110E+07,
2460378.500000000, A.D. 2024-Mar-09 00:00:00.0000, -4.435554617268013E+08, -2.086474708912206E+08, -6.073123057410947E+07,
2460385.500000000, A.D. 2024-Mar-16 00:00:00.0000, -4.387792608337936E+08, -2.170798067122123E+08, -5.997013247724719E+07,
2460392.500000000, A.D. 2024-Mar-23 00:00:00.0000, -4.338255495451404E+08, -2.254243416728758E+08, -5.918476583891095E+07,
2460399.500000000, A.D. 2024-Mar-30 00:00:00.0000, -4.286955445894749E+08, -2.336772913557113E+08, -5.837534136438507E+07,
2460406.500000000, A.D. 2024-Apr-06 00:00:00.0000, -4.233905399629155E+08, -2.418348697177717E+08, -5.754208034811294E+07,
2460413.500000000, A.D. 2024-Apr-13 00:00:00.0000, -4.179119080955391E+08, -2.498932921086496E+08, -5.668521493277431E+07,
2460420.500000000, A.D. 2024-Apr-20 00:00:00.0000, -4.122610999514076E+08, -2.578487770824191E+08, -5.580498836237596E+07,
2460427.500000000, A.D. 2024-Apr-27 00:00:00.0000, -4.064396455758727E+08, -2.656975475653570E+08, -5.490165513529490E+07,
2460434.500000000, A.D. 2024-May-04 00:00:00.0000, -4.004491549987502E+08, -2.734358320841063E+08, -5.397548112219699E+07,
2460441.500000000, A.D. 2024-May-11 00:00:00.0000, -3.942913192521380E+08, -2.810598661578873E+08, -5.302674367861868E+07,
2460448.500000000, A.D. 2024-May-18 00:00:00.0000, -3.879679114185528E+08, -2.885658938348666E+08, -5.205573175763309E+07,
2460455.500000000, A.D. 2024-May-25 00:00:00.0000, -3.814807876824655E+08, -2.959501693812190E+08, -5.106274602504852E+07,
2460462.500000000, A.D. 2024-Jun-01 00:00:00.0000, -3.748318883231223E+08, -3.032089591814778E+08, -5.004809898684134E+07,
2460469.500000000, A.D. 2024-Jun-08 00:00:00.0000, -3.680232383999345E+08, -3.103385438740914E+08, -4.901211515274866E+07,
2460476.500000000, A.D. 2024-Jun-15 00:00:00.0000, -3.610569477283711E+08, -3.173352201777560E+08, -4.795513122747874E+07,
2460483.500000000, A.D. 2024-Jun-22 00:00:00.0000, -3.539352111484905E+08, -3.241953012336297E+08, -4.687749614053465E+07,
2460490.500000000, A.D. 2024-Jun-29 00:00:00.0000, -3.466603112040071E+08, -3.309151172846469E+08, -4.577957086810261E+07,
2460497.500000000, A.D. 2024-Jul-06 00:00:00.0000, -3.392346205836986E+08, -3.374910191643780E+08, -4.466172849106114E+07,
2460504.500000000, A.D. 2024-Jul-13 00:00:00.0000, -3.316606023734660E+08, -3.439193817724214E+08, -4.352435443662727E+07,
2460511.500000000, A.D. 2024-Jul-20 00:00:00.0000, -3.239408101015393E+08, -3.501966063875322E+08, -4.236784662690349E+07,
2460518.500000000, A.D. 2024-Jul-27 00:00:00.0000, -3.160778882286473E+08, -3.563191227775214E+08, -4.119261555182323E+07,
2460525.500000000, A.D. 2024-Aug-03 00:00:00.0000, -3.080745728056898E+08, -3.622833914808478E+08, -3.999908432163401E+07,
2460532.500000000, A.D. 2024-Aug-10 00:00:00.0000, -2.999336921288828E+08, -3.680859062647634E+08, -3.878768871419130E+07,
2460539.500000000, A.D. 2024-Aug-17 00:00:00.0000, -2.916581673413026E+08, -3.737231967386545E+08, -3.755887721942808E+07,
2460546.500000000, A.D. 2024-Aug-24 00:00:00.0000, -2.832510129495424E+08, -3.791918311446888E+08, -3.631311108512689E+07,
2460553.500000000, A.D. 2024-Aug-31 00:00:00.0000, -2.747153371363893E+08, -3.844884193864121E+08, -3.505086437926292E+07,
2460560.500000000, A.D. 2024-Sep-07 00:00:00.0000, -2.660543415003202E+08, -3.896096161672717E+08, -3.377262409159881E+07,
2460567.500000000, A.D. 2024-Sep-14 00:00:00.0000, -2.572713201322828E+08, -3.945521232405334E+08, -3.247889020026031E+07,
2460574.500000000, A.D. 2024-Sep-21 00:00:00.0000, -2.483696600530249E+08, -3.993126903544567E+08, -3.117017548265296E+07,
2460581.500000000, A.D. 2024-Sep-28 00:00:00.0000, -2.393528434916239E+08, -4.038881181175102E+08, -2.984700528912911E+07,
2460588.500000000, A.D. 2024-Oct-05 00:00:00.0000, -2.302244483292612E+08, -4.082752627812415E+08, -2.850991761560261E+07,
2460595.500000000, A.D. 2024-Oct-12 00:00:00.0000, -2.209881470641453E+08, -4.124710399606539E+08, -2.715946319830793E+07,
2460602.500000000, A.D. 2024-Oct-19 00:00:00.0000, -2.116477060445397E+08, -4.164724275618814E+08, -2.579620549189734E+07,
2460609.500000000, A.D. 2024-Oct-26 00:00:00.0000, -2.022069849984319E+08, -4.202764687163370E+08, -2.442072059287661E+07,
2460616.500000000, A.D. 2024-Nov-02 00:00:00.0000, -1.926699365982772E+08, -4.238802748665160E+08, -2.303359714344978E+07,
2460623.500000000, A.D. 2024-Nov-09 00:00:00.0000, -1.830406059594716E+08, -4.272810289790949E+08, -2.163543622223550E+07,
2460630.500000000, A.D. 2024-Nov-16 00:00:00.0000, -1.733231300417503E+08, -4.304759888813014E+08, -2.022685122348562E+07,
2460637.500000000, A.D. 2024-Nov-23 00:00:00.0000, -1.635217369018125E+08, -4.334624907664410E+08, -1.880846773242408E+07,
2460644.500000000, A.D. 2024-Nov-30 00:00:00.0000, -1.536407445841787E+08, -4.362379529068024E+08, -1.738092341850016E+07,
2460651.500000000, A.D. 2024-Dec-07 00:00:00.0000, -1.436845592262278E+08, -4.387998791484664E+08, -1.594486794984433E+07,
2460658.500000000, A.D. 2024-Dec-14 00:00:00.0000, -1.336576730614887E+08, -4.411458609585554E+08, -1.450096276492909E+07,
2460665.500000000, A.D. 2024-Dec-21 00:00:00.0000, -1.235646646348538E+08, -4.432735792593051E+08, -1.304988058940426E+07,
2460672.500000000, A.D. 2024-Dec-28 00:00:00.0000, -1.134101992520306E+08, -4.451808090102806E+08, -1.159230512090114E+07,
2460679.500000000, A.D. 2025-Jan-04 00:00:00.0000, -1.031990270616251E+08, -4.468654241576589E+08, -1.012893092522976E+07,
2460686.500000000, A.D. 2025-Jan-11 00:00:00.0000, -9.293598058763528E+07, -4.483254012852064E+08, -8.660463240536094E+06,
2460693.500000000, A.D. 2025-Jan-18 00:00:00.0000, -8.262597262593077E+07, -4.495588228789904E+08, -7.187617679619431E+06,
2460700.500000000, A.D. 2025-Jan-25 00:00:00.0000, -7.227399425789392E+07, -4.505638806728727E+08, -5.711119890798926E+06,
2460707.500000000, A.D. 2025-Feb-01 00:00:00.0000, -6.188511278842311E+07, -4.513388790969293E+08, -4.231705196552873E+06,
$$EOE